STARLETTE               
1 07646U 75010A   24045.52635553 -.00000133  00000+0  92837-5 0  9996
2 07646  49.8212 234.0997 0205752 122.9568 239.1292 13.82325104476441
LAGEOS 1                
1 08820U 76039A   24044.57010649  .00000019  00000+0  00000+0 0  9997
2 08820 109.8301 246.5835 0044523 125.7776 264.6172  6.38664769858563
AJISAI (EGS)            
1 16908U 86061A   24044.92338406 -.00000092  00000+0  38691-4 0  9996
2 16908  50.0070 254.2150 0011331 164.8079 336.5633 12.44504135374014
COSMOS 1989 (ETALON 1)  
1 19751U 89001C   24045.41072102 -.00000006  00000+0  00000+0 0  9998
2 19751  64.4995 101.4962 0023987 215.6074 155.4355  2.13156132273249
COSMOS 2024 (ETALON 2)  
1 20026U 89039C   24044.66249361 -.00000070  00000+0  00000+0 0  9996
2 20026  65.3887 339.8046 0019217 217.9085 310.4031  2.13204207270286
LAGEOS 2                
1 22195U 92070B   24045.28340358 -.00000009  00000+0  00000+0 0  9993
2 22195  52.6546  86.2852 0137777 173.4835 167.3065  6.47293789740333
STELLA                  
1 22824U 93061B   24044.96098560 -.00000019  00000+0  10912-4 0  9991
2 22824  98.8981  89.1972 0006144 189.6289 298.1853 14.27417911582904
LARETS                  
1 27944U 03042F   24045.49776580  .00000295  00000+0  66334-4 0  9997
2 27944  98.2923 184.8777 0012331 176.9186 183.2094 14.63455925 88569
LARES                   
1 38077U 12006A   24045.04272864 -.00000026  00000+0  77845-4 0  9995
2 38077  69.4931 311.2035 0007130 141.0503 219.1038 12.54931368550016
LARES-2                 
1 53105U 22080A   24036.91371101  .00000041  00000+0  00000+0 0  9997
2 53105  70.1373 241.0449 0005170 167.0099 193.0798  6.38965284 36575
